[{"OBJECT_NAME":"ONEWEB-0281","OBJECT_ID":"2021-060AJ","EPOCH":"2026-03-09T23:11:29.824224","MEAN_MOTION":13.16593547,"ECCENTRICITY":0.00014924,"INCLINATION":87.9003,"RA_OF_ASC_NODE":248.5056,"ARG_OF_PERICENTER":95.5253,"MEAN_ANOMALY":264.6048,"EPHEMERIS_TYPE":0,"CLASSIFICATION_TYPE":"U","NORAD_CAT_ID":48999,"ELEMENT_SET_NO":999,"REV_AT_EPOCH":22657,"BSTAR":-1.9844362e-5,"MEAN_MOTION_DOT":5.0e-8,"MEAN_MOTION_DDOT":0},{"OBJECT_NAME":"COSMOS 839 DEB","OBJECT_ID":"1976-067AN","EPOCH":"2026-03-09T14:14:11.527008","MEAN_MOTION":12.42043411,"ECCENTRICITY":0.0739538,"INCLINATION":65.7328,"RA_OF_ASC_NODE":162.3037,"ARG_OF_PERICENTER":211.7789,"MEAN_ANOMALY":265.65,"EPHEMERIS_TYPE":0,"CLASSIFICATION_TYPE":"U","NORAD_CAT_ID":10614,"ELEMENT_SET_NO":999,"REV_AT_EPOCH":24765,"BSTAR":0.0014091,"MEAN_MOTION_DOT":4.5e-6,"MEAN_MOTION_DDOT":0}]
